ONEWEB-0365             
1 49291U 21090N   26166.89782105 -.00000070  00000+0 -20842-3 0  9995
2 49291  87.9175 305.2232 0001807 100.9398 259.1939 13.19724406226259
ONEWEB-0366             
1 49292U 21090P   26167.29412105 -.00000152  00000+0 -44361-3 0  9994
2 49292  87.8962 289.8845 0001958 100.4611 259.6740 13.14503136227447
ONEWEB-0367             
1 49293U 21090Q   26167.25408955  .00000163  00000+0  36806-3 0  9994
2 49293  87.9196 274.6263 0001916 105.5211 254.6134 13.20771470229708
ONEWEB-0368             
1 49294U 21090R   26167.30373602  .00000067  00000+0  13399-3 0  9996
2 49294  87.9183 274.6268 0001421  83.6729 276.4566 13.20770206230867
ONEWEB-0369             
1 49295U 21090S   26167.12053634 -.00000016  00000+0 -72140-4 0  9993
2 49295  87.9168 305.1866 0001798  98.1763 261.9574 13.19724529226274
ONEWEB-0370             
1 49296U 21090T   26167.03606627 -.00000032  00000+0 -11059-3 0  9999
2 49296  87.9196 274.6695 0002173 105.7767 254.3607 13.20770064229715
ONEWEB-0371             
1 49297U 21090U   26166.90097666 -.00000009  00000+0 -55024-4 0  9997
2 49297  87.9173 305.2226 0001851 102.5864 257.5476 13.19724212226287
ONEWEB-0372             
1 49298U 21090V   26167.25309446  .00000173  00000+0  39318-3 0  9996
2 49298  87.9195 274.6278 0001963 101.6455 258.4899 13.20772115229715
ONEWEB-0373             
1 49299U 21090W   26167.27849203  .00000102  00000+0  21967-3 0  9992
2 49299  87.9193 274.6232 0002063 100.2516 259.8850 13.20771896230909
ONEWEB-0374             
1 49300U 21090X   26167.28143564 -.00000128  00000+0 -38046-3 0  9999
2 49300  87.8968 289.8776 0002172  85.0028 275.1350 13.14503268227441
ONEWEB-0375             
1 49301U 21090Y   26167.26671320  .00000109  00000+0  23600-3 0  9991
2 49301  87.9193 274.6172 0002305  87.6895 272.4502 13.20771379230409
ONEWEB-0376             
1 49302U 21090Z   26166.89939720  .00000001  00000+0 -30603-4 0  9995
2 49302  87.9175 305.2228 0001684 101.2745 258.8577 13.19724707226281
ONEWEB-0377             
1 49303U 21090AA  26167.02616040 -.00013120  00000+0 -32379-1 0  9995
2 49303  87.9213 274.6673 0002872  94.7028 265.4434 13.20705094230368
ONEWEB-0378             
1 49304U 21090AB  26167.27357582  .00000064  00000+0  12438-3 0  9993
2 49304  87.9190 274.6228 0001974  96.2112 263.9246 13.20770420229662
ONEWEB-0379             
1 49305U 21090AC  26167.27667456 -.00000069  00000+0 -22023-3 0  9996
2 49305  87.8966 289.8892 0001905  96.3674 263.7672 13.14503027227441
ONEWEB-0380             
1 49306U 21090AD  26167.12369858 -.00000054  00000+0 -16747-3 0  9996
2 49306  87.9170 305.1833 0002071  97.3007 262.8362 13.19724390226283
ONEWEB-0381             
1 49307U 21090AE  26167.24987610  .00000152  00000+0  34260-3 0  9999
2 49307  87.9196 274.6271 0002088  93.1146 267.0226 13.20772731229704
ONEWEB-0382             
1 49308U 21090AF  26167.31215364  .00000072  00000+0  14407-3 0  9990
2 49308  87.9193 274.6088 0001981  91.9180 268.2180 13.20770233229700
ONEWEB-0383             
1 49309U 21090AG  26167.27032128  .00000064  00000+0  13875-3 0  9990
2 49309  87.8969 289.8819 0001829  95.5012 264.6326 13.14501128227478
ONEWEB-0384             
1 49310U 21090AH  26167.30082566  .00000076  00000+0  15487-3 0  9991
2 49310  87.9197 274.6548 0001954  86.7972 273.3385 13.20812849229714
ONEWEB-0385             
1 49311U 21090AJ  26167.30542953  .00000078  00000+0  15973-3 0  9995
2 49311  87.9194 274.6155 0001987  94.3443 265.7917 13.20772827229683
ONEWEB-0386             
1 49312U 21090AK  26167.32226745  .00000093  00000+0  19795-3 0  9999
2 49312  87.9198 274.6032 0001919  92.8379 267.2974 13.20771582229708
ONEWEB-0387             
1 49313U 21090AL  26167.30711367  .00000093  00000+0  19597-3 0  9997
2 49313  87.9184 274.6284 0002313  96.1552 263.9845 13.20772756229706
ONEWEB-0388             
1 49314U 21090AM  26167.11895961 -.00000004  00000+0 -41245-4 0  9990
2 49314  87.9168 305.1823 0001888  94.4946 265.6402 13.19724827226273
ONEWEB-0389             
1 50469U 21132A   26167.28747983 -.00002880  00000+0 -74506-2 0  9996
2 50469  87.9131   6.0472 0002207  85.1976 274.9408 13.17662129217968
ONEWEB-0390             
1 50470U 21132B   26167.28917060  .00000084  00000+0  18271-3 0  9993
2 50470  87.9131   6.0477 0001978  94.2697 265.8661 13.17648684217960
ONEWEB-0391             
1 50471U 21132C   26167.29085952 -.00000030  00000+0 -11012-3 0  9990
2 50471  87.9132   6.0571 0002701  85.8501 274.2939 13.17648434217967
ONEWEB-0392             
1 50472U 21132D   26167.24530434  .00000082  00000+0  17841-3 0  9997
2 50472  87.9142   6.0342 0002198  83.4020 276.7362 13.17649329217999
ONEWEB-0393             
1 50473U 21132E   26167.29676443 -.00000026  00000+0 -99569-4 0  9992
2 50473  87.9132   6.0414 0002015  85.1950 274.9411 13.17649400217993
ONEWEB-0394             
1 50474U 21132F   26167.18760575  .00000408  00000+0  10019-2 0  9994
2 50474  87.9171 335.6405 0001799  87.6309 272.5029 13.18686119221466
