OBJECT_NAME,OBJECT_ID,EPOCH,MEAN_MOTION,ECCENTRICITY,INCLINATION,RA_OF_ASC_NODE,ARG_OF_PERICENTER,MEAN_ANOMALY,EPHEMERIS_TYPE,CLASSIFICATION_TYPE,NORAD_CAT_ID,ELEMENT_SET_NO,REV_AT_EPOCH,BSTAR,MEAN_MOTION_DOT,MEAN_MOTION_DDOT
ONEWEB-0365,2021-090N,2026-06-15T21:32:51.738720,13.19724406,.0001807,87.9175,305.2232,100.9398,259.1939,0,U,49291,999,22625,-.20842E-3,-.7E-6,0
ONEWEB-0366,2021-090P,2026-06-16T07:03:32.058720,13.14503136,.00019586,87.8962,289.8845,100.4611,259.6740,0,U,49292,999,22744,-.4436123E-3,-.152E-5,0
ONEWEB-0367,2021-090Q,2026-06-16T06:05:53.337120,13.20771470,.0001916,87.9196,274.6263,105.5211,254.6134,0,U,49293,999,22970,.36806088E-3,.163E-5,0
ONEWEB-0368,2021-090R,2026-06-16T07:17:22.792128,13.20770206,.00014214,87.9183,274.6268,83.6729,276.4566,0,U,49294,999,23086,.13398526E-3,.67E-6,0
ONEWEB-0369,2021-090S,2026-06-16T02:53:34.339776,13.19724529,.00017985,87.9168,305.1866,98.1763,261.9574,0,U,49295,999,22627,-.72139894E-4,-.16E-6,0
ONEWEB-0370,2021-090T,2026-06-16T00:51:56.125728,13.20770064,.00021731,87.9196,274.6695,105.7767,254.3607,0,U,49296,999,22971,-.11059407E-3,-.32E-6,0
ONEWEB-0371,2021-090U,2026-06-15T21:37:24.383424,13.19724212,.0001851,87.9173,305.2226,102.5864,257.5476,0,U,49297,999,22628,-.55024E-4,-.9E-7,0
ONEWEB-0372,2021-090V,2026-06-16T06:04:27.361344,13.20772115,.00019634,87.9195,274.6278,101.6455,258.4899,0,U,49298,999,22971,.39317691E-3,.173E-5,0
ONEWEB-0373,2021-090W,2026-06-16T06:41:01.711392,13.20771896,.0002063,87.9193,274.6232,100.2516,259.8850,0,U,49299,999,23090,.21966513E-3,.102E-5,0
ONEWEB-0374,2021-090X,2026-06-16T06:45:16.039296,13.14503268,.0002172,87.8968,289.8776,85.0028,275.1350,0,U,49300,999,22744,-.38046382E-3,-.128E-5,0
ONEWEB-0375,2021-090Y,2026-06-16T06:24:04.020480,13.20771379,.0002305,87.9193,274.6172,87.6895,272.4502,0,U,49301,999,23040,.23600046E-3,.109E-5,0
ONEWEB-0376,2021-090Z,2026-06-15T21:35:07.918080,13.19724707,.0001684,87.9175,305.2228,101.2745,258.8577,0,U,49302,999,22628,-.30603E-4,.1E-7,0
ONEWEB-0377,2021-090AA,2026-06-16T00:37:40.258560,13.20705094,.0002872,87.9213,274.6673,94.7028,265.4434,0,U,49303,999,23036,-.32379447E-1,-.1312E-3,0
ONEWEB-0378,2021-090AB,2026-06-16T06:33:56.950848,13.20770420,.0001974,87.9190,274.6228,96.2112,263.9246,0,U,49304,999,22966,.12438379E-3,.64E-6,0
ONEWEB-0379,2021-090AC,2026-06-16T06:38:24.681984,13.14503027,.00019054,87.8966,289.8892,96.3674,263.7672,0,U,49305,999,22744,-.22023173E-3,-.69E-6,0
ONEWEB-0380,2021-090AD,2026-06-16T02:58:07.557312,13.19724390,.0002071,87.9170,305.1833,97.3007,262.8362,0,U,49306,999,22628,-.16746902E-3,-.54E-6,0
ONEWEB-0381,2021-090AE,2026-06-16T05:59:49.295040,13.20772731,.00020881,87.9196,274.6271,93.1146,267.0226,0,U,49307,999,22970,.34259698E-3,.152E-5,0
ONEWEB-0382,2021-090AF,2026-06-16T07:29:30.074496,13.20770233,.00019812,87.9193,274.6088,91.9180,268.2180,0,U,49308,999,22970,.14407407E-3,.72E-6,0
ONEWEB-0383,2021-090AG,2026-06-16T06:29:15.758592,13.14501128,.00018297,87.8969,289.8819,95.5012,264.6326,0,U,49309,999,22747,.13875498E-3,.64E-6,0
ONEWEB-0384,2021-090AH,2026-06-16T07:13:11.337024,13.20812849,.00019544,87.9197,274.6548,86.7972,273.3385,0,U,49310,999,22971,.15486555E-3,.76E-6,0
ONEWEB-0385,2021-090AJ,2026-06-16T07:19:49.111392,13.20772827,.00019876,87.9194,274.6155,94.3443,265.7917,0,U,49311,999,22968,.159735E-3,.78E-6,0
ONEWEB-0386,2021-090AK,2026-06-16T07:44:03.907680,13.20771582,.00019195,87.9198,274.6032,92.8379,267.2974,0,U,49312,999,22970,.19795048E-3,.93E-6,0
ONEWEB-0387,2021-090AL,2026-06-16T07:22:14.621088,13.20772756,.00023136,87.9184,274.6284,96.1552,263.9845,0,U,49313,999,22970,.19597428E-3,.93E-6,0
ONEWEB-0388,2021-090AM,2026-06-16T02:51:18.110304,13.19724827,.00018884,87.9168,305.1823,94.4946,265.6402,0,U,49314,999,22627,-.41244567E-4,-.4E-7,0
ONEWEB-0389,2021-132A,2026-06-16T06:53:58.257312,13.17662129,.0002207,87.9131,6.0472,85.1976,274.9408,0,U,50469,999,21796,-.7450564E-2,-.288E-4,0
ONEWEB-0390,2021-132B,2026-06-16T06:56:24.339840,13.17648684,.00019785,87.9131,6.0477,94.2697,265.8661,0,U,50470,999,21796,.1827096E-3,.84E-6,0
ONEWEB-0391,2021-132C,2026-06-16T06:58:50.262528,13.17648434,.00027015,87.9132,6.0571,85.8501,274.2939,0,U,50471,999,21796,-.11012362E-3,-.3E-6,0
ONEWEB-0392,2021-132D,2026-06-16T05:53:14.294976,13.17649329,.00021988,87.9142,6.0342,83.4020,276.7362,0,U,50472,999,21799,.17840963E-3,.82E-6,0
ONEWEB-0393,2021-132E,2026-06-16T07:07:20.446752,13.17649400,.00020158,87.9132,6.0414,85.1950,274.9411,0,U,50473,999,21799,-.9956866E-4,-.26E-6,0
ONEWEB-0394,2021-132F,2026-06-16T04:30:09.136800,13.18686119,.00017992,87.9171,335.6405,87.6309,272.5029,0,U,50474,999,22146,.10018634E-2,.408E-5,0
